[{"OBJECT_NAME":"SJ-11-07","OBJECT_ID":"2014-059A","EPOCH":"2026-03-09T21:45:47.816352","MEAN_MOTION":14.63627905,"ECCENTRICITY":0.00120468,"INCLINATION":98.0026,"RA_OF_ASC_NODE":141.1257,"ARG_OF_PERICENTER":102.2482,"MEAN_ANOMALY":258.0071,"EPHEMERIS_TYPE":0,"CLASSIFICATION_TYPE":"U","NORAD_CAT_ID":40261,"ELEMENT_SET_NO":999,"REV_AT_EPOCH":61039,"BSTAR":0.00017894302,"MEAN_MOTION_DOT":8.85e-6,"MEAN_MOTION_DDOT":0},{"OBJECT_NAME":"CZ-4B DEB","OBJECT_ID":"1999-057EV","EPOCH":"2026-03-09T06:01:08.643072","MEAN_MOTION":14.74646443,"ECCENTRICITY":0.00590955,"INCLINATION":98.381,"RA_OF_ASC_NODE":162.1038,"ARG_OF_PERICENTER":333.035,"MEAN_ANOMALY":86.1586,"EPHEMERIS_TYPE":0,"CLASSIFICATION_TYPE":"U","NORAD_CAT_ID":26259,"ELEMENT_SET_NO":999,"REV_AT_EPOCH":36947,"BSTAR":0.0011862595,"MEAN_MOTION_DOT":8.089e-5,"MEAN_MOTION_DDOT":0}]
